[
    {
        "Altitude(m)": 607897.619273261,
        "Argument of Periapsis(deg)": 0.0,
        "Eccentricity": 0.0,
        "Inclination(deg)": 60.0,
        "Latitude(deg)": -14.292960670699117,
        "Longitude(deg)": 21.618783409435622,
        "Mean Anomaly(deg)": -16.363600000000037,
        "RAAN(deg)": 130.0,
        "Satellite Name": "Test1 593",
        "Satellite Number": 593,
        "Semi-Major Axis(m)": 6980739.136638005,
        "Time(s)": 0
    },
    {
        "Altitude(m)": 607750.820302999,
        "Argument of Periapsis(deg)": 0.00010418945913296404,
        "Eccentricity": 0.0,
        "Inclination(deg)": 60.0,
        "Latitude(deg)": -13.758801509002518,
        "Longitude(deg)": 21.90585126729917,
        "Mean Anomaly(deg)": -15.743493854538185,
        "RAAN(deg)": 129.99957995086024,
        "Satellite Name": "Test1 593",
        "Satellite Number": 593,
        "Semi-Major Axis(m)": 6980739.136638005,
        "Time(s)": 10
    }
]